     2.11           N: GPS NAV DATA                         RINEX VERSION / TYPE
teqc  2019Feb25                         20221121 12:25:34UTCPGM / RUN BY / DATE
OSX ker:10.11.6|Core i5|gcc 4.3 -m64|OSX ker:10.10+|=+      COMMENT
    4.6566D-09  1.4901D-08 -5.9605D-08 -5.9605D-08          ION ALPHA
    7.9872D+04  6.5536D+04 -6.5536D+04 -3.9322D+05          ION BETA
   -9.313225746155D-10 2.664535259100D-15   589824     1541 DELTA-UTC: A0,A1,T,W
                                                            END OF HEADER
19 09  7 25 21 59 44.0 1.770118251443D-05-1.477928890381D-12 0.000000000000D+00
    9.000000000000D+00-1.193750000000D+01 4.538403328430D-09 1.719799691417D+00
   -3.520399332047D-07 5.774965859018D-03 1.251697540283D-05 5.153641345978D+03
    5.975840000000D+05 1.508742570877D-07-2.374974190477D+00 3.725290298462D-08
    9.576526535055D-01 1.320625000000D+02-3.140461367336D-01-7.982118201548D-09
   -2.025084352892D-10 1.000000000000D+00 1.541000000000D+03 0.000000000000D+00
    2.000000000000D+00 0.000000000000D+00-1.443549990654D-08 9.000000000000D+00
    5.952060000000D+05 4.000000000000D+00
22 09  7 25 22  0  0.0 1.947311684489D-04-9.094947017729D-13 0.000000000000D+00
    6.300000000000D+01-3.384375000000D+01 5.058067831685D-09 2.637020052664D+00
   -1.765787601471D-06 5.213380325586D-03 5.099922418594D-06 5.153656972885D+03
    5.976000000000D+05 5.215406417847D-08-3.202403717998D-01-3.911554813385D-08
    9.392701076844D-01 2.688750000000D+02-1.896984881080D+00-8.406421589773D-09
   -3.682296239562D-10 1.000000000000D+00 1.541000000000D+03 0.000000000000D+00
    2.000000000000D+00 0.000000000000D+00-1.769512891769D-08 6.300000000000D+01
    5.962380000000D+05 4.000000000000D+00
28 09  7 25 22  0  0.0-2.605002373457D-05-1.136868377216D-13 0.000000000000D+00
    3.200000000000D+01-7.584375000000D+01 4.785913638228D-09 2.876198246527D+00
   -3.978610038757D-06 1.496289600618D-02 4.976987838745D-06 5.153645936966D+03
    5.976000000000D+05 7.264316082001D-08 2.818397519352D+00-2.048909664154D-07
    9.674431844747D-01 2.862187500000D+02-2.020799441334D+00-8.069264688692D-09
   -2.571535686212D-10 1.000000000000D+00 1.541000000000D+03 0.000000000000D+00
    2.000000000000D+00 0.000000000000D+00-1.071020960808D-08 3.200000000000D+01
    5.962380000000D+05 4.000000000000D+00
19 09  7 25 23 59 44.0 1.769047230482D-05-1.477928890381D-12 0.000000000000D+00
    1.000000000000D+01-9.562500000000D+00 4.584119518407D-09 2.770186881426D+00
   -4.060566425323D-07 5.775459459983D-03 1.229904592037D-05 5.153639209747D+03
    6.047840000000D+05-1.136213541031D-07-2.375032547742D+00 1.452863216400D-07
    9.576522468143D-01 1.411250000000D+02-3.142305595012D-01-7.874970881289D-09
    1.142904749427D-11 1.000000000000D+00 1.541000000000D+03 0.000000000000D+00
    2.000000000000D+00 0.000000000000D+00-1.443549990654D-08 1.000000000000D+01
    5.976180000000D+05 4.000000000000D+00
